STARLINK-1909
1 17550C 21009C   21326.13907876  .00001095  00000-0  73334-4 0  3261
2 17550  53.0538 203.1185 0002153  72.8465  46.6135 15.06406267    13
